STARLINK-35874          
1 66962U 25288D   26003.13425440  .00140168  00000+0  23491-2 0  9998
2 66962  43.0006  38.6934 0001500 265.5838  94.4851 15.50620028  5207
STARLINK-36133          
1 66963U 25288E   26003.13391118  .00140378  00000+0  23527-2 0  9996
2 66963  43.0006  38.6907 0001572 259.0249 101.0435 15.50617985  5202
STARLINK-36104          
1 66964U 25288F   26003.19832557  .00150519  00000+0  25284-2 0  9990
2 66964  43.0012  38.3121 0001251 267.8248  92.2469 15.50513139  5210
STARLINK-36067          
1 66965U 25288G   26003.25002315 -.00166662  00000+0 -40577-2 0  9999
2 66965  43.0009  38.2530 0001205 270.8835 279.6192 15.40791986  5283
STARLINK-36139          
1 66966U 25288H   26002.55314769  .00016683  00000+0  28959-3 0  9997
2 66966  43.0010  42.0733 0001227 276.9960  83.0761 15.50578294  5111
STARLINK-36136          
1 66967U 25288J   26003.26136803  .00208377  00000+0  34541-2 0  9994
2 66967  43.0004  37.9261 0001921 251.1234 108.9418 15.50659297  5225
STARLINK-36152          
1 66968U 25288K   26003.13219643  .00136858  00000+0  22947-2 0  9996
2 66968  43.0008  38.6763 0001290 258.3959 101.6757 15.50619856  5208
STARLINK-36149          
1 66969U 25288L   26003.25002315 -.00126164  00000+0 -30582-2 0  9991
2 66969  43.0011  38.3111 0001434 278.2197 247.4339 15.40748158  5282
STARLINK-35703          
1 66970U 25288M   26003.25793991  .00178384  00000+0  29728-2 0  9999
2 66970  43.0007  37.8974 0002509 296.0228  64.0374 15.50624563  5227
STARLINK-35678          
1 66971U 25288N   26003.13185293  .00123932  00000+0  20822-2 0  9992
2 66971  43.0013  38.6740 0001309 257.5971 102.4743 15.50616942  5206
STARLINK-34846          
1 66972U 25288P   26003.26034005  .00118693  00000+0  19952-2 0  9991
2 66972  43.0005  37.9180 0002051 293.1943  66.8701 15.50624599  5224
STARLINK-35778          
1 66973U 25288Q   26003.25002315  .00041002  00000+0  98477-3 0  9999
2 66973  43.0007  38.1921 0001173 257.4800 317.9231 15.40662162  5283
