CCSDS_OMM_VERS = 2.0
CREATION_DATE  = 
ORIGINATOR     = 

OBJECT_NAME    = STARLINK-35874
OBJECT_ID      = 2025-288D
CENTER_NAME    = EARTH
REF_FRAME      = TEME
TIME_SYSTEM    = UTC
MEAN_ELEMENT_THEORY = SGP/SGP4

EPOCH          = 2026-01-03T03:13:19.580160
MEAN_MOTION    = 15.50620028
ECCENTRICITY   = .00015005
INCLINATION    = 43.0006
RA_OF_ASC_NODE = 38.6934
ARG_OF_PERICENTER = 265.5838
MEAN_ANOMALY   = 94.4851

EPHEMERIS_TYPE = 0
CLASSIFICATION_TYPE = U
NORAD_CAT_ID   = 66962
ELEMENT_SET_NO = 999
REV_AT_EPOCH   = 520
BSTAR          = .23490973E-2
MEAN_MOTION_DOT = .140168E-2
MEAN_MOTION_DDOT = 0

CCSDS_OMM_VERS = 2.0
CREATION_DATE  = 
ORIGINATOR     = 

OBJECT_NAME    = STARLINK-36133
OBJECT_ID      = 2025-288E
CENTER_NAME    = EARTH
REF_FRAME      = TEME
TIME_SYSTEM    = UTC
MEAN_ELEMENT_THEORY = SGP/SGP4

EPOCH          = 2026-01-03T03:12:49.925952
MEAN_MOTION    = 15.50617985
ECCENTRICITY   = .0001572
INCLINATION    = 43.0006
RA_OF_ASC_NODE = 38.6907
ARG_OF_PERICENTER = 259.0249
MEAN_ANOMALY   = 101.0435

EPHEMERIS_TYPE = 0
CLASSIFICATION_TYPE = U
NORAD_CAT_ID   = 66963
ELEMENT_SET_NO = 999
REV_AT_EPOCH   = 520
BSTAR          = .23527064E-2
MEAN_MOTION_DOT = .140378E-2
MEAN_MOTION_DDOT = 0

CCSDS_OMM_VERS = 2.0
CREATION_DATE  = 
ORIGINATOR     = 

OBJECT_NAME    = STARLINK-36104
OBJECT_ID      = 2025-288F
CENTER_NAME    = EARTH
REF_FRAME      = TEME
TIME_SYSTEM    = UTC
MEAN_ELEMENT_THEORY = SGP/SGP4

EPOCH          = 2026-01-03T04:45:35.329248
MEAN_MOTION    = 15.50513139
ECCENTRICITY   = .0001251
INCLINATION    = 43.0012
RA_OF_ASC_NODE = 38.3121
ARG_OF_PERICENTER = 267.8248
MEAN_ANOMALY   = 92.2469

EPHEMERIS_TYPE = 0
CLASSIFICATION_TYPE = U
NORAD_CAT_ID   = 66964
ELEMENT_SET_NO = 999
REV_AT_EPOCH   = 521
BSTAR          = .2528381E-2
MEAN_MOTION_DOT = .150519E-2
MEAN_MOTION_DDOT = 0

CCSDS_OMM_VERS = 2.0
CREATION_DATE  = 
ORIGINATOR     = 

OBJECT_NAME    = STARLINK-36067
OBJECT_ID      = 2025-288G
CENTER_NAME    = EARTH
REF_FRAME      = TEME
TIME_SYSTEM    = UTC
MEAN_ELEMENT_THEORY = SGP/SGP4

EPOCH          = 2026-01-03T06:00:02.000160
MEAN_MOTION    = 15.40791986
ECCENTRICITY   = .00012059
INCLINATION    = 43.0009
RA_OF_ASC_NODE = 38.2530
ARG_OF_PERICENTER = 270.8835
MEAN_ANOMALY   = 279.6192

EPHEMERIS_TYPE = 0
CLASSIFICATION_TYPE = U
NORAD_CAT_ID   = 66965
ELEMENT_SET_NO = 999
REV_AT_EPOCH   = 528
BSTAR          = -.40577166E-2
MEAN_MOTION_DOT = -.166662E-2
MEAN_MOTION_DDOT = 0

CCSDS_OMM_VERS = 2.0
CREATION_DATE  = 
ORIGINATOR     = 

OBJECT_NAME    = STARLINK-36139
OBJECT_ID      = 2025-288H
CENTER_NAME    = EARTH
REF_FRAME      = TEME
TIME_SYSTEM    = UTC
MEAN_ELEMENT_THEORY = SGP/SGP4

EPOCH          = 2026-01-02T13:16:31.960416
MEAN_MOTION    = 15.50578294
ECCENTRICITY   = .00012278
INCLINATION    = 43.0010
RA_OF_ASC_NODE = 42.0733
ARG_OF_PERICENTER = 276.9960
MEAN_ANOMALY   = 83.0761

EPHEMERIS_TYPE = 0
CLASSIFICATION_TYPE = U
NORAD_CAT_ID   = 66966
ELEMENT_SET_NO = 999
REV_AT_EPOCH   = 511
BSTAR          = .28958627E-3
MEAN_MOTION_DOT = .16683E-3
MEAN_MOTION_DDOT = 0

CCSDS_OMM_VERS = 2.0
CREATION_DATE  = 
ORIGINATOR     = 

OBJECT_NAME    = STARLINK-36136
OBJECT_ID      = 2025-288J
CENTER_NAME    = EARTH
REF_FRAME      = TEME
TIME_SYSTEM    = UTC
MEAN_ELEMENT_THEORY = SGP/SGP4

EPOCH          = 2026-01-03T06:16:22.197792
MEAN_MOTION    = 15.50659297
ECCENTRICITY   = .00019211
INCLINATION    = 43.0004
RA_OF_ASC_NODE = 37.9261
ARG_OF_PERICENTER = 251.1234
MEAN_ANOMALY   = 108.9418

EPHEMERIS_TYPE = 0
CLASSIFICATION_TYPE = U
NORAD_CAT_ID   = 66967
ELEMENT_SET_NO = 999
REV_AT_EPOCH   = 522
BSTAR          = .34541035E-2
MEAN_MOTION_DOT = .208377E-2
MEAN_MOTION_DDOT = 0

CCSDS_OMM_VERS = 2.0
CREATION_DATE  = 
ORIGINATOR     = 

OBJECT_NAME    = STARLINK-36152
OBJECT_ID      = 2025-288K
CENTER_NAME    = EARTH
REF_FRAME      = TEME
TIME_SYSTEM    = UTC
MEAN_ELEMENT_THEORY = SGP/SGP4

EPOCH          = 2026-01-03T03:10:21.771552
MEAN_MOTION    = 15.50619856
ECCENTRICITY   = .00012907
INCLINATION    = 43.0008
RA_OF_ASC_NODE = 38.6763
ARG_OF_PERICENTER = 258.3959
MEAN_ANOMALY   = 101.6757

EPHEMERIS_TYPE = 0
CLASSIFICATION_TYPE = U
NORAD_CAT_ID   = 66968
ELEMENT_SET_NO = 999
REV_AT_EPOCH   = 520
BSTAR          = .22947482E-2
MEAN_MOTION_DOT = .136858E-2
MEAN_MOTION_DDOT = 0

CCSDS_OMM_VERS = 2.0
CREATION_DATE  = 
ORIGINATOR     = 

OBJECT_NAME    = STARLINK-36149
OBJECT_ID      = 2025-288L
CENTER_NAME    = EARTH
REF_FRAME      = TEME
TIME_SYSTEM    = UTC
MEAN_ELEMENT_THEORY = SGP/SGP4

EPOCH          = 2026-01-03T06:00:02.000160
MEAN_MOTION    = 15.40748158
ECCENTRICITY   = .00014349
INCLINATION    = 43.0011
RA_OF_ASC_NODE = 38.3111
ARG_OF_PERICENTER = 278.2197
MEAN_ANOMALY   = 247.4339

EPHEMERIS_TYPE = 0
CLASSIFICATION_TYPE = U
NORAD_CAT_ID   = 66969
ELEMENT_SET_NO = 999
REV_AT_EPOCH   = 528
BSTAR          = -.30581983E-2
MEAN_MOTION_DOT = -.126164E-2
MEAN_MOTION_DDOT = 0

CCSDS_OMM_VERS = 2.0
CREATION_DATE  = 
ORIGINATOR     = 

OBJECT_NAME    = STARLINK-35703
OBJECT_ID      = 2025-288M
CENTER_NAME    = EARTH
REF_FRAME      = TEME
TIME_SYSTEM    = UTC
MEAN_ELEMENT_THEORY = SGP/SGP4

EPOCH          = 2026-01-03T06:11:26.008224
MEAN_MOTION    = 15.50624563
ECCENTRICITY   = .00025099
INCLINATION    = 43.0007
RA_OF_ASC_NODE = 37.8974
ARG_OF_PERICENTER = 296.0228
MEAN_ANOMALY   = 64.0374

EPHEMERIS_TYPE = 0
CLASSIFICATION_TYPE = U
NORAD_CAT_ID   = 66970
ELEMENT_SET_NO = 999
REV_AT_EPOCH   = 522
BSTAR          = .29727889E-2
MEAN_MOTION_DOT = .178384E-2
MEAN_MOTION_DDOT = 0

CCSDS_OMM_VERS = 2.0
CREATION_DATE  = 
ORIGINATOR     = 

OBJECT_NAME    = STARLINK-35678
OBJECT_ID      = 2025-288N
CENTER_NAME    = EARTH
REF_FRAME      = TEME
TIME_SYSTEM    = UTC
MEAN_ELEMENT_THEORY = SGP/SGP4

EPOCH          = 2026-01-03T03:09:52.093152
MEAN_MOTION    = 15.50616942
ECCENTRICITY   = .00013096
INCLINATION    = 43.0013
RA_OF_ASC_NODE = 38.6740
ARG_OF_PERICENTER = 257.5971
MEAN_ANOMALY   = 102.4743

EPHEMERIS_TYPE = 0
CLASSIFICATION_TYPE = U
NORAD_CAT_ID   = 66971
ELEMENT_SET_NO = 999
REV_AT_EPOCH   = 520
BSTAR          = .20822276E-2
MEAN_MOTION_DOT = .123932E-2
MEAN_MOTION_DDOT = 0

CCSDS_OMM_VERS = 2.0
CREATION_DATE  = 
ORIGINATOR     = 

OBJECT_NAME    = STARLINK-34846
OBJECT_ID      = 2025-288P
CENTER_NAME    = EARTH
REF_FRAME      = TEME
TIME_SYSTEM    = UTC
MEAN_ELEMENT_THEORY = SGP/SGP4

EPOCH          = 2026-01-03T06:14:53.380320
MEAN_MOTION    = 15.50624599
ECCENTRICITY   = .00020516
INCLINATION    = 43.0005
RA_OF_ASC_NODE = 37.9180
ARG_OF_PERICENTER = 293.1943
MEAN_ANOMALY   = 66.8701

EPHEMERIS_TYPE = 0
CLASSIFICATION_TYPE = U
NORAD_CAT_ID   = 66972
ELEMENT_SET_NO = 999
REV_AT_EPOCH   = 522
BSTAR          = .19952097E-2
MEAN_MOTION_DOT = .118693E-2
MEAN_MOTION_DDOT = 0

CCSDS_OMM_VERS = 2.0
CREATION_DATE  = 
ORIGINATOR     = 

OBJECT_NAME    = STARLINK-35778
OBJECT_ID      = 2025-288Q
CENTER_NAME    = EARTH
REF_FRAME      = TEME
TIME_SYSTEM    = UTC
MEAN_ELEMENT_THEORY = SGP/SGP4

EPOCH          = 2026-01-03T06:00:02.000160
MEAN_MOTION    = 15.40662162
ECCENTRICITY   = .00011736
INCLINATION    = 43.0007
RA_OF_ASC_NODE = 38.1921
ARG_OF_PERICENTER = 257.4800
MEAN_ANOMALY   = 317.9231

EPHEMERIS_TYPE = 0
CLASSIFICATION_TYPE = U
NORAD_CAT_ID   = 66973
ELEMENT_SET_NO = 999
REV_AT_EPOCH   = 528
BSTAR          = .98476988E-3
MEAN_MOTION_DOT = .41002E-3
MEAN_MOTION_DDOT = 0

